CCSDS_OMM_VERS = 2.0
CREATION_DATE  = 
ORIGINATOR     = 

OBJECT_NAME    = ALOS (DAICHI)
OBJECT_ID      = 2006-002A
CENTER_NAME    = EARTH
REF_FRAME      = TEME
TIME_SYSTEM    = UTC
MEAN_ELEMENT_THEORY = SGP/SGP4

EPOCH          = 2026-02-14T18:21:03.924864
MEAN_MOTION    = 14.69732190
ECCENTRICITY   = .0001873
INCLINATION    = 98.1179
RA_OF_ASC_NODE = 1.8424
ARG_OF_PERICENTER = 59.6481
MEAN_ANOMALY   = 300.4910

EPHEMERIS_TYPE = 0
CLASSIFICATION_TYPE = U
NORAD_CAT_ID   = 28931
ELEMENT_SET_NO = 999
REV_AT_EPOCH   = 7011
BSTAR          = .25235E-3
MEAN_MOTION_DOT = .1455E-4
MEAN_MOTION_DDOT = 0

CCSDS_OMM_VERS = 2.0
CREATION_DATE  = 
ORIGINATOR     = 

OBJECT_NAME    = H-2A R/B
OBJECT_ID      = 2006-002B
CENTER_NAME    = EARTH
REF_FRAME      = TEME
TIME_SYSTEM    = UTC
MEAN_ELEMENT_THEORY = SGP/SGP4

EPOCH          = 2026-02-14T23:19:49.698336
MEAN_MOTION    = 15.15941317
ECCENTRICITY   = .0052394
INCLINATION    = 98.2365
RA_OF_ASC_NODE = 191.0584
ARG_OF_PERICENTER = 319.5379
MEAN_ANOMALY   = 40.1960

EPHEMERIS_TYPE = 0
CLASSIFICATION_TYPE = U
NORAD_CAT_ID   = 28932
ELEMENT_SET_NO = 999
REV_AT_EPOCH   = 9099
BSTAR          = .32475E-3
MEAN_MOTION_DOT = .6365E-4
MEAN_MOTION_DDOT = 0

CCSDS_OMM_VERS = 2.0
CREATION_DATE  = 
ORIGINATOR     = 

OBJECT_NAME    = RESURS-DK 1
OBJECT_ID      = 2006-021A
CENTER_NAME    = EARTH
REF_FRAME      = TEME
TIME_SYSTEM    = UTC
MEAN_ELEMENT_THEORY = SGP/SGP4

EPOCH          = 2026-02-15T02:50:23.049312
MEAN_MOTION    = 15.12609895
ECCENTRICITY   = .0003931
INCLINATION    = 69.9338
RA_OF_ASC_NODE = 295.4062
ARG_OF_PERICENTER = 194.7917
MEAN_ANOMALY   = 165.3135

EPHEMERIS_TYPE = 0
CLASSIFICATION_TYPE = U
NORAD_CAT_ID   = 29228
ELEMENT_SET_NO = 999
REV_AT_EPOCH   = 8411
BSTAR          = .11653E-3
MEAN_MOTION_DOT = .1932E-4
MEAN_MOTION_DDOT = 0

CCSDS_OMM_VERS = 2.0
CREATION_DATE  = 
ORIGINATOR     = 

OBJECT_NAME    = CZ-4B R/B
OBJECT_ID      = 2006-046C
CENTER_NAME    = EARTH
REF_FRAME      = TEME
TIME_SYSTEM    = UTC
MEAN_ELEMENT_THEORY = SGP/SGP4

EPOCH          = 2026-02-15T02:42:47.777472
MEAN_MOTION    = 15.16655743
ECCENTRICITY   = .0032993
INCLINATION    = 97.5643
RA_OF_ASC_NODE = 91.0813
ARG_OF_PERICENTER = 348.6443
MEAN_ANOMALY   = 11.4042

EPHEMERIS_TYPE = 0
CLASSIFICATION_TYPE = U
NORAD_CAT_ID   = 29507
ELEMENT_SET_NO = 999
REV_AT_EPOCH   = 5662
BSTAR          = .21545E-3
MEAN_MOTION_DOT = .4203E-4
MEAN_MOTION_DDOT = 0

CCSDS_OMM_VERS = 2.0
CREATION_DATE  = 
ORIGINATOR     = 

OBJECT_NAME    = CZ-2C R/B
OBJECT_ID      = 2007-010B
CENTER_NAME    = EARTH
REF_FRAME      = TEME
TIME_SYSTEM    = UTC
MEAN_ELEMENT_THEORY = SGP/SGP4

EPOCH          = 2026-02-15T04:21:48.988800
MEAN_MOTION    = 14.20238029
ECCENTRICITY   = .005891
INCLINATION    = 98.3971
RA_OF_ASC_NODE = 160.5904
ARG_OF_PERICENTER = 0.8562
MEAN_ANOMALY   = 359.2707

EPHEMERIS_TYPE = 0
CLASSIFICATION_TYPE = U
NORAD_CAT_ID   = 31114
ELEMENT_SET_NO = 999
REV_AT_EPOCH   = 97652
BSTAR          = .61413E-4
MEAN_MOTION_DOT = .92E-6
MEAN_MOTION_DDOT = 0

CCSDS_OMM_VERS = 2.0
CREATION_DATE  = 
ORIGINATOR     = 

OBJECT_NAME    = COSMO-SKYMED 1
OBJECT_ID      = 2007-023A
CENTER_NAME    = EARTH
REF_FRAME      = TEME
TIME_SYSTEM    = UTC
MEAN_ELEMENT_THEORY = SGP/SGP4

EPOCH          = 2026-02-15T04:44:06.177408
MEAN_MOTION    = 14.96350099
ECCENTRICITY   = .0001187
INCLINATION    = 97.8854
RA_OF_ASC_NODE = 237.0520
ARG_OF_PERICENTER = 94.2309
MEAN_ANOMALY   = 265.9047

EPHEMERIS_TYPE = 0
CLASSIFICATION_TYPE = U
NORAD_CAT_ID   = 31598
ELEMENT_SET_NO = 999
REV_AT_EPOCH   = 1154
BSTAR          = .30649E-3
MEAN_MOTION_DOT = .3409E-4
MEAN_MOTION_DDOT = 0

CCSDS_OMM_VERS = 2.0
CREATION_DATE  = 
ORIGINATOR     = 

OBJECT_NAME    = COSMOS 2428
OBJECT_ID      = 2007-029A
CENTER_NAME    = EARTH
REF_FRAME      = TEME
TIME_SYSTEM    = UTC
MEAN_ELEMENT_THEORY = SGP/SGP4

EPOCH          = 2026-02-15T00:31:27.293088
MEAN_MOTION    = 14.12937059
ECCENTRICITY   = .0007795
INCLINATION    = 70.9399
RA_OF_ASC_NODE = 250.9260
ARG_OF_PERICENTER = 302.7740
MEAN_ANOMALY   = 57.2630

EPHEMERIS_TYPE = 0
CLASSIFICATION_TYPE = U
NORAD_CAT_ID   = 31792
ELEMENT_SET_NO = 999
REV_AT_EPOCH   = 96089
BSTAR          = .17135E-3
MEAN_MOTION_DOT = .271E-5
MEAN_MOTION_DDOT = 0

CCSDS_OMM_VERS = 2.0
CREATION_DATE  = 
ORIGINATOR     = 

OBJECT_NAME    = SL-16 R/B
OBJECT_ID      = 2007-029B
CENTER_NAME    = EARTH
REF_FRAME      = TEME
TIME_SYSTEM    = UTC
MEAN_ELEMENT_THEORY = SGP/SGP4

EPOCH          = 2026-02-14T22:47:57.924672
MEAN_MOTION    = 14.14835790
ECCENTRICITY   = .000223
INCLINATION    = 70.9743
RA_OF_ASC_NODE = 220.1828
ARG_OF_PERICENTER = 283.2684
MEAN_ANOMALY   = 191.3211

EPHEMERIS_TYPE = 0
CLASSIFICATION_TYPE = U
NORAD_CAT_ID   = 31793
ELEMENT_SET_NO = 999
REV_AT_EPOCH   = 96215
BSTAR          = .88302E-4
MEAN_MOTION_DOT = .123E-5
MEAN_MOTION_DDOT = 0

CCSDS_OMM_VERS = 2.0
CREATION_DATE  = 
ORIGINATOR     = 

OBJECT_NAME    = KORONAS-FOTON
OBJECT_ID      = 2009-003A
CENTER_NAME    = EARTH
REF_FRAME      = TEME
TIME_SYSTEM    = UTC
MEAN_ELEMENT_THEORY = SGP/SGP4

EPOCH          = 2026-02-15T03:09:23.836032
MEAN_MOTION    = 15.42724249
ECCENTRICITY   = .0009153
INCLINATION    = 82.4316
RA_OF_ASC_NODE = 299.3190
ARG_OF_PERICENTER = 233.7803
MEAN_ANOMALY   = 126.2599

EPHEMERIS_TYPE = 0
CLASSIFICATION_TYPE = U
NORAD_CAT_ID   = 33504
ELEMENT_SET_NO = 999
REV_AT_EPOCH   = 94226
BSTAR          = .25071E-3
MEAN_MOTION_DOT = .10998E-3
MEAN_MOTION_DDOT = 0

CCSDS_OMM_VERS = 2.0
CREATION_DATE  = 
ORIGINATOR     = 

OBJECT_NAME    = CZ-2C R/B
OBJECT_ID      = 2011-030B
CENTER_NAME    = EARTH
REF_FRAME      = TEME
TIME_SYSTEM    = UTC
MEAN_ELEMENT_THEORY = SGP/SGP4

EPOCH          = 2026-02-14T20:15:51.805440
MEAN_MOTION    = 14.81129781
ECCENTRICITY   = .0054119
INCLINATION    = 97.8505
RA_OF_ASC_NODE = 3.5735
ARG_OF_PERICENTER = 65.3586
MEAN_ANOMALY   = 348.1795

EPHEMERIS_TYPE = 0
CLASSIFICATION_TYPE = U
NORAD_CAT_ID   = 37731
ELEMENT_SET_NO = 999
REV_AT_EPOCH   = 78671
BSTAR          = .19546E-3
MEAN_MOTION_DOT = .1503E-4
MEAN_MOTION_DDOT = 0

CCSDS_OMM_VERS = 2.0
CREATION_DATE  = 
ORIGINATOR     = 

OBJECT_NAME    = H-2A R/B
OBJECT_ID      = 2012-025E
CENTER_NAME    = EARTH
REF_FRAME      = TEME
TIME_SYSTEM    = UTC
MEAN_ELEMENT_THEORY = SGP/SGP4

EPOCH          = 2026-02-14T21:45:09.362304
MEAN_MOTION    = 14.94959709
ECCENTRICITY   = .0045429
INCLINATION    = 98.4683
RA_OF_ASC_NODE = 11.1400
ARG_OF_PERICENTER = 29.1861
MEAN_ANOMALY   = 331.1881

EPHEMERIS_TYPE = 0
CLASSIFICATION_TYPE = U
NORAD_CAT_ID   = 38341
ELEMENT_SET_NO = 999
REV_AT_EPOCH   = 74481
BSTAR          = .33656E-3
MEAN_MOTION_DOT = .3683E-4
MEAN_MOTION_DDOT = 0

CCSDS_OMM_VERS = 2.0
CREATION_DATE  = 
ORIGINATOR     = 

OBJECT_NAME    = SHIJIAN-16 (SJ-16)
OBJECT_ID      = 2013-057A
CENTER_NAME    = EARTH
REF_FRAME      = TEME
TIME_SYSTEM    = UTC
MEAN_ELEMENT_THEORY = SGP/SGP4

EPOCH          = 2026-02-15T04:05:02.415840
MEAN_MOTION    = 14.92253594
ECCENTRICITY   = .0016555
INCLINATION    = 74.9701
RA_OF_ASC_NODE = 227.7167
ARG_OF_PERICENTER = 169.1303
MEAN_ANOMALY   = 191.0246

EPHEMERIS_TYPE = 0
CLASSIFICATION_TYPE = U
NORAD_CAT_ID   = 39358
ELEMENT_SET_NO = 999
REV_AT_EPOCH   = 66814
BSTAR          = .70748E-4
MEAN_MOTION_DOT = .694E-5
MEAN_MOTION_DDOT = 0

