ALOS (DAICHI)           
1 28931U 06002A   26045.76462876  .00001455  00000+0  25235-3 0  9998
2 28931  98.1179   1.8424 0001873  59.6481 300.4910 14.69732190 70119
H-2A R/B                
1 28932U 06002B   26045.97210299  .00006365  00000+0  32475-3 0  9991
2 28932  98.2365 191.0584 0052394 319.5379  40.1960 15.15941317 90991
RESURS-DK 1             
1 29228U 06021A   26046.11832233  .00001932  00000+0  11653-3 0  9996
2 29228  69.9338 295.4062 0003931 194.7917 165.3135 15.12609895 84119
CZ-4B R/B               
1 29507U 06046C   26046.11305298  .00004203  00000+0  21545-3 0  9994
2 29507  97.5643  91.0813 0032993 348.6443  11.4042 15.16655743 56623
CZ-2C R/B               
1 31114U 07010B   26046.18181700  .00000092  00000+0  61413-4 0  9991
2 31114  98.3971 160.5904 0058910   0.8562 359.2707 14.20238029976521
COSMO-SKYMED 1          
1 31598U 07023A   26046.19729372  .00003409  00000+0  30649-3 0  9996
2 31598  97.8854 237.0520 0001187  94.2309 265.9047 14.96350099 11542
COSMOS 2428             
1 31792U 07029A   26046.02184367  .00000271  00000+0  17135-3 0  9998
2 31792  70.9399 250.9260 0007795 302.7740  57.2630 14.12937059960892
SL-16 R/B               
1 31793U 07029B   26045.94997598  .00000123  00000+0  88302-4 0  9998
2 31793  70.9743 220.1828 0002230 283.2684 191.3211 14.14835790962151
KORONAS-FOTON           
1 33504U 09003A   26046.13152588  .00010998  00000+0  25071-3 0  9992
2 33504  82.4316 299.3190 0009153 233.7803 126.2599 15.42724249942265
CZ-2C R/B               
1 37731U 11030B   26045.84434960  .00001503  00000+0  19546-3 0  9997
2 37731  97.8505   3.5735 0054119  65.3586 348.1795 14.81129781786711
H-2A R/B                
1 38341U 12025E   26045.90635836  .00003683  00000+0  33656-3 0  9991
2 38341  98.4683  11.1400 0045429  29.1861 331.1881 14.94959709744813
SHIJIAN-16 (SJ-16)      
1 39358U 13057A   26046.17016685  .00000694  00000+0  70748-4 0  9994
2 39358  74.9701 227.7167 0016555 169.1303 191.0246 14.92253594668147
